{
  "type": "FeatureCollection",
  "features": [
    {
      "type": "Feature",
      "properties": {
        "norad_id": 31776,
        "name": "FENGYUN 1C DEB",
        "group": "fengyun-1c-debris",
        "lat": 6.0266350999402345,
        "lon": 41.501351676241434,
        "alt_km": 795.5812168378752,
        "timestamp": "2025-12-08T19:31:49.092473+00:00",
        "meta_object_name": "FENGYUN 1C DEB",
        "meta_object_id": "1999-025CGB",
        "meta_epoch": "2025-12-07T03:00:47.329920",
        "meta_mean_motion": 14.18505117,
        "meta_eccentricity": 0.00544535,
        "meta_inclination": 99.0754,
        "meta_ra_of_asc_node": 40.7419,
        "meta_arg_of_pericenter": 350.7961,
        "meta_mean_anomaly": 38.8915,
        "meta_ephemeris_type": 0,
        "meta_classification_type": "U",
        "meta_norad_cat_id": 31776,
        "meta_element_set_no": 999,
        "meta_rev_at_epoch": 94801,
        "meta_bstar": 0.0021272928,
        "meta_mean_motion_dot": 4.419e-05,
        "meta_mean_motion_ddot": 0,
        "tle_line1": "1 31776U 99025CGB 25341.12554780  .00004419  00000+0  21273-2 0  9990",
        "tle_line2": "2 31776  99.0754  40.7419 0054453 350.7961  38.8915 14.18505117948016"
      },
      "geometry": {
        "type": "Point",
        "coordinates": [
          41.501351676241434,
          6.0266350999402345
        ]
      }
    },
    {
      "type": "Feature",
      "properties": {
        "norad_id": 31779,
        "name": "FENGYUN 1C DEB",
        "group": "fengyun-1c-debris",
        "lat": -16.31465923486367,
        "lon": -94.81878523116491,
        "alt_km": 887.5293799520787,
        "timestamp": "2025-12-08T19:31:49.092483+00:00",
        "meta_object_name": "FENGYUN 1C DEB",
        "meta_object_id": "1999-025CGE",
        "meta_epoch": "2025-12-05T13:18:58.519008",
        "meta_mean_motion": 14.41571273,
        "meta_eccentricity": 0.02129967,
        "meta_inclination": 99.2975,
        "meta_ra_of_asc_node": 258.8857,
        "meta_arg_of_pericenter": 204.0278,
        "meta_mean_anomaly": 155.0856,
        "meta_ephemeris_type": 0,
        "meta_classification_type": "U",
        "meta_norad_cat_id": 31779,
        "meta_element_set_no": 999,
        "meta_rev_at_epoch": 96906,
        "meta_bstar": 0.00050937089,
        "meta_mean_motion_dot": 2.11e-05,
        "meta_mean_motion_ddot": 0,
        "tle_line1": "1 31779U 99025CGE 25339.55484397  .00002110  00000+0  50937-3 0  9999",
        "tle_line2": "2 31779  99.2975 258.8857 0212996 204.0278 155.0856 14.41571273969060"
      },
      "geometry": {
        "type": "Point",
        "coordinates": [
          -94.81878523116491,
          -16.31465923486367
        ]
      }
    },
    {
      "type": "Feature",
      "properties": {
        "norad_id": 31780,
        "name": "FENGYUN 1C DEB",
        "group": "fengyun-1c-debris",
        "lat": -80.51310339072054,
        "lon": -123.35334094285209,
        "alt_km": 767.6426137558883,
        "timestamp": "2025-12-08T19:31:49.092492+00:00",
        "meta_object_name": "FENGYUN 1C DEB",
        "meta_object_id": "1999-025CGF",
        "meta_epoch": "2025-12-08T05:14:41.943264",
        "meta_mean_motion": 14.69512947,
        "meta_eccentricity": 0.01509729,
        "meta_inclination": 99.2859,
        "meta_ra_of_asc_node": 134.2318,
        "meta_arg_of_pericenter": 67.0458,
        "meta_mean_anomaly": 294.6594,
        "meta_ephemeris_type": 0,
        "meta_classification_type": "U",
        "meta_norad_cat_id": 31780,
        "meta_element_set_no": 999,
        "meta_rev_at_epoch": 98431,
        "meta_bstar": 0.00045636619,
        "meta_mean_motion_dot": 3.154e-05,
        "meta_mean_motion_ddot": 0,
        "tle_line1": "1 31780U 99025CGF 25342.21854101  .00003154  00000+0  45637-3 0  9992",
        "tle_line2": "2 31780  99.2859 134.2318 0150972  67.0458 294.6594 14.69512947984311"
      },
      "geometry": {
        "type": "Point",
        "coordinates": [
          -123.35334094285209,
          -80.51310339072054
        ]
      }
    },
    {
      "type": "Feature",
      "properties": {
        "norad_id": 31781,
        "name": "FENGYUN 1C DEB",
        "group": "fengyun-1c-debris",
        "lat": 62.522240475886406,
        "lon": -7.752484854442919,
        "alt_km": 987.5464883481682,
        "timestamp": "2025-12-08T19:31:49.092501+00:00",
        "meta_object_name": "FENGYUN 1C DEB",
        "meta_object_id": "1999-025CGG",
        "meta_epoch": "2025-12-06T17:40:58.002816",
        "meta_mean_motion": 14.12834979,
        "meta_eccentricity": 0.020359,
        "meta_inclination": 99.4971,
        "meta_ra_of_asc_node": 151.2686,
        "meta_arg_of_pericenter": 290.4351,
        "meta_mean_anomaly": 67.5063,
        "meta_ephemeris_type": 0,
        "meta_classification_type": "U",
        "meta_norad_cat_id": 31781,
        "meta_element_set_no": 999,
        "meta_rev_at_epoch": 68263,
        "meta_bstar": 0.0057062026,
        "meta_mean_motion_dot": 0.00012887,
        "meta_mean_motion_ddot": 0,
        "tle_line1": "1 31781U 99025CGG 25340.73678244  .00012887  00000+0  57062-2 0  9997",
        "tle_line2": "2 31781  99.4971 151.2686 0203590 290.4351  67.5063 14.12834979682633"
      },
      "geometry": {
        "type": "Point",
        "coordinates": [
          -7.752484854442919,
          62.522240475886406
        ]
      }
    },
    {
      "type": "Feature",
      "properties": {
        "norad_id": 31782,
        "name": "FENGYUN 1C DEB",
        "group": "fengyun-1c-debris",
        "lat": -66.14114814096777,
        "lon": -56.88829580211889,
        "alt_km": 807.1139181498211,
        "timestamp": "2025-12-08T19:31:49.092510+00:00",
        "meta_object_name": "FENGYUN 1C DEB",
        "meta_object_id": "1999-025CGH",
        "meta_epoch": "2025-12-07T06:10:02.152704",
        "meta_mean_motion": 14.36215883,
        "meta_eccentricity": 0.00797443,
        "meta_inclination": 98.9039,
        "meta_ra_of_asc_node": 142.2635,
        "meta_arg_of_pericenter": 13.1528,
        "meta_mean_anomaly": 110.7151,
        "meta_ephemeris_type": 0,
        "meta_classification_type": "U",
        "meta_norad_cat_id": 31782,
        "meta_element_set_no": 999,
        "meta_rev_at_epoch": 96612,
        "meta_bstar": 0.00062786281,
        "meta_mean_motion_dot": 1.852e-05,
        "meta_mean_motion_ddot": 0,
        "tle_line1": "1 31782U 99025CGH 25341.25696936  .00001852  00000+0  62786-3 0  9994",
        "tle_line2": "2 31782  98.9039 142.2635 0079744  13.1528 110.7151 14.36215883966126"
      },
      "geometry": {
        "type": "Point",
        "coordinates": [
          -56.88829580211889,
          -66.14114814096777
        ]
      }
    },
    {
      "type": "Feature",
      "properties": {
        "norad_id": 31783,
        "name": "FENGYUN 1C DEB",
        "group": "fengyun-1c-debris",
        "lat": 4.598330295699657,
        "lon": 172.34770713697358,
        "alt_km": 896.1103775273668,
        "timestamp": "2025-12-08T19:31:49.092519+00:00",
        "meta_object_name": "FENGYUN 1C DEB",
        "meta_object_id": "1999-025CGJ",
        "meta_epoch": "2025-12-07T06:58:26.715072",
        "meta_mean_motion": 14.0881303,
        "meta_eccentricity": 0.01045463,
        "meta_inclination": 98.6049,
        "meta_ra_of_asc_node": 350.1957,
        "meta_arg_of_pericenter": 65.3292,
        "meta_mean_anomaly": 307.9858,
        "meta_ephemeris_type": 0,
        "meta_classification_type": "U",
        "meta_norad_cat_id": 31783,
        "meta_element_set_no": 999,
        "meta_rev_at_epoch": 89144,
        "meta_bstar": 0.00086206384,
        "meta_mean_motion_dot": 1.524e-05,
        "meta_mean_motion_ddot": 0,
        "tle_line1": "1 31783U 99025CGJ 25341.29058698  .00001524  00000+0  86206-3 0  9995",
        "tle_line2": "2 31783  98.6049 350.1957 0104546  65.3292 307.9858 14.08813030891441"
      },
      "geometry": {
        "type": "Point",
        "coordinates": [
          172.34770713697358,
          4.598330295699657
        ]
      }
    },
    {
      "type": "Feature",
      "properties": {
        "norad_id": 31788,
        "name": "FENGYUN 1C DEB",
        "group": "fengyun-1c-debris",
        "lat": 5.443485831501642,
        "lon": 123.59263961637424,
        "alt_km": 1075.3155094824242,
        "timestamp": "2025-12-08T19:31:49.092528+00:00",
        "meta_object_name": "FENGYUN 1C DEB",
        "meta_object_id": "1999-025CGP",
        "meta_epoch": "2025-12-07T06:34:14.280960",
        "meta_mean_motion": 13.45050768,
        "meta_eccentricity": 0.04634358,
        "meta_inclination": 102.5565,
        "meta_ra_of_asc_node": 122.8838,
        "meta_arg_of_pericenter": 98.8989,
        "meta_mean_anomaly": 18.5526,
        "meta_ephemeris_type": 0,
        "meta_classification_type": "U",
        "meta_norad_cat_id": 31788,
        "meta_element_set_no": 999,
        "meta_rev_at_epoch": 90531,
        "meta_bstar": 0.0038627259,
        "meta_mean_motion_dot": 4.296e-05,
        "meta_mean_motion_ddot": 0,
        "tle_line1": "1 31788U 99025CGP 25341.27377640  .00004296  00000+0  38627-2 0  9991",
        "tle_line2": "2 31788 102.5565 122.8838 0463435  98.8989  18.5526 13.45050768905315"
      },
      "geometry": {
        "type": "Point",
        "coordinates": [
          123.59263961637424,
          5.443485831501642
        ]
      }
    }
  ]
}